[{"OBJECT_NAME":"STARLINK-5922","OBJECT_ID":"2023-037M","EPOCH":"2026-03-09T22:05:41.261280","MEAN_MOTION":14.9833624,"ECCENTRICITY":0.00029721,"INCLINATION":69.9994,"RA_OF_ASC_NODE":303.7996,"ARG_OF_PERICENTER":266.5752,"MEAN_ANOMALY":93.5067,"EPHEMERIS_TYPE":0,"CLASSIFICATION_TYPE":"U","NORAD_CAT_ID":55925,"ELEMENT_SET_NO":999,"REV_AT_EPOCH":16352,"BSTAR":-8.9701454e-5,"MEAN_MOTION_DOT":-1.163e-5,"MEAN_MOTION_DDOT":0},{"OBJECT_NAME":"FENGYUN 1C DEB","OBJECT_ID":"1999-025BQF","EPOCH":"2026-03-08T19:58:36.101856","MEAN_MOTION":15.15826086,"ECCENTRICITY":0.00798835,"INCLINATION":98.9812,"RA_OF_ASC_NODE":89.4872,"ARG_OF_PERICENTER":83.7388,"MEAN_ANOMALY":277.2932,"EPHEMERIS_TYPE":0,"CLASSIFICATION_TYPE":"U","NORAD_CAT_ID":31327,"ELEMENT_SET_NO":999,"REV_AT_EPOCH":1401,"BSTAR":0.0018254058,"MEAN_MOTION_DOT":0.00037915,"MEAN_MOTION_DDOT":0}]
